[{"OBJECT_NAME":"YAOGAN-20 01B","OBJECT_ID":"2014-047B","EPOCH":"2026-03-09T23:45:00.499968","MEAN_MOTION":13.45431441,"ECCENTRICITY":0.03813833,"INCLINATION":63.3786,"RA_OF_ASC_NODE":275.7687,"ARG_OF_PERICENTER":14.1688,"MEAN_ANOMALY":346.9686,"EPHEMERIS_TYPE":0,"CLASSIFICATION_TYPE":"U","NORAD_CAT_ID":40110,"ELEMENT_SET_NO":999,"REV_AT_EPOCH":56893,"BSTAR":0.00011613122,"MEAN_MOTION_DOT":1.6e-7,"MEAN_MOTION_DDOT":0},{"OBJECT_NAME":"NOAA 16 DEB","OBJECT_ID":"2000-055DW","EPOCH":"2026-03-09T07:03:09.173952","MEAN_MOTION":14.1845448,"ECCENTRICITY":0.00408806,"INCLINATION":98.6951,"RA_OF_ASC_NODE":98.6045,"ARG_OF_PERICENTER":188.8705,"MEAN_ANOMALY":171.1753,"EPHEMERIS_TYPE":0,"CLASSIFICATION_TYPE":"U","NORAD_CAT_ID":41217,"ELEMENT_SET_NO":999,"REV_AT_EPOCH":52521,"BSTAR":0.0017974611,"MEAN_MOTION_DOT":3.702e-5,"MEAN_MOTION_DDOT":0}]
